[{"OBJECT_NAME":"STARLINK-3266","OBJECT_ID":"2021-125AR","EPOCH":"2026-03-09T16:58:33.424320","MEAN_MOTION":15.0883895,"ECCENTRICITY":0.00013751,"INCLINATION":53.2172,"RA_OF_ASC_NODE":239.044,"ARG_OF_PERICENTER":90.0677,"MEAN_ANOMALY":270.0473,"EPHEMERIS_TYPE":0,"CLASSIFICATION_TYPE":"U","NORAD_CAT_ID":50195,"ELEMENT_SET_NO":999,"REV_AT_EPOCH":23673,"BSTAR":-7.102846e-6,"MEAN_MOTION_DOT":-4.01e-6,"MEAN_MOTION_DDOT":0},{"OBJECT_NAME":"LEMUR-2-ESPERANZA","OBJECT_ID":"2025-061B","EPOCH":"2026-03-09T20:59:51.017856","MEAN_MOTION":15.12770808,"ECCENTRICITY":0.00169494,"INCLINATION":97.5568,"RA_OF_ASC_NODE":45.1407,"ARG_OF_PERICENTER":244.877,"MEAN_ANOMALY":115.0702,"EPHEMERIS_TYPE":0,"CLASSIFICATION_TYPE":"U","NORAD_CAT_ID":63352,"ELEMENT_SET_NO":999,"REV_AT_EPOCH":5257,"BSTAR":0.00034972806,"MEAN_MOTION_DOT":6.09e-5,"MEAN_MOTION_DDOT":0}]
