STARLINK-3266           
1 50195U 21125AR  26068.70733128 -.00000401  00000+0 -71028-5 0  9993
2 50195  53.2172 239.0440 0001375  90.0677 270.0473 15.08838950236730
LEMUR-2-ESPERANZA       
1 63352U 25061B   26068.87489603  .00006090  00000+0  34973-3 0  9993
2 63352  97.5568  45.1407 0016949 244.8770 115.0702 15.12770807 52576
